[{"OBJECT_NAME":"STARLINK-36175","OBJECT_ID":"2025-293K","EPOCH":"2026-03-09T11:46:20.204832","MEAN_MOTION":14.98333042,"ECCENTRICITY":0.00028798,"INCLINATION":70.0001,"RA_OF_ASC_NODE":95.1336,"ARG_OF_PERICENTER":267.68,"MEAN_ANOMALY":92.403,"EPHEMERIS_TYPE":0,"CLASSIFICATION_TYPE":"U","NORAD_CAT_ID":67012,"ELEMENT_SET_NO":999,"REV_AT_EPOCH":1485,"BSTAR":0.0002615372,"MEAN_MOTION_DOT":3.029e-5,"MEAN_MOTION_DDOT":0},{"OBJECT_NAME":"NOAA 16 DEB","OBJECT_ID":"2000-055PP","EPOCH":"2026-03-07T09:37:02.399808","MEAN_MOTION":14.94870962,"ECCENTRICITY":0.00127779,"INCLINATION":98.9453,"RA_OF_ASC_NODE":285.7448,"ARG_OF_PERICENTER":347.412,"MEAN_ANOMALY":12.6776,"EPHEMERIS_TYPE":0,"CLASSIFICATION_TYPE":"U","NORAD_CAT_ID":41709,"ELEMENT_SET_NO":999,"REV_AT_EPOCH":51965,"BSTAR":0.009194972,"MEAN_MOTION_DOT":0.00101727,"MEAN_MOTION_DDOT":0}]
